[{"OBJECT_NAME":"TRANSPORTER-10 OBJECT AW","OBJECT_ID":"2024-043AW","EPOCH":"2026-03-09T22:04:49.515456","MEAN_MOTION":15.70494371,"ECCENTRICITY":0.00039773,"INCLINATION":97.534,"RA_OF_ASC_NODE":220.1774,"ARG_OF_PERICENTER":196.6835,"MEAN_ANOMALY":163.4297,"EPHEMERIS_TYPE":0,"CLASSIFICATION_TYPE":"U","NORAD_CAT_ID":59142,"ELEMENT_SET_NO":999,"REV_AT_EPOCH":11287,"BSTAR":0.00092189633,"MEAN_MOTION_DOT":0.00114165,"MEAN_MOTION_DDOT":0},{"OBJECT_NAME":"STARLINK-11359 [DTC]","OBJECT_ID":"2024-204L","EPOCH":"2026-03-09T02:24:58.451328","MEAN_MOTION":15.69700073,"ECCENTRICITY":8.135e-5,"INCLINATION":53.1591,"RA_OF_ASC_NODE":359.0535,"ARG_OF_PERICENTER":76.4863,"MEAN_ANOMALY":283.6245,"EPHEMERIS_TYPE":0,"CLASSIFICATION_TYPE":"U","NORAD_CAT_ID":61884,"ELEMENT_SET_NO":999,"REV_AT_EPOCH":7682,"BSTAR":1.438111e-5,"MEAN_MOTION_DOT":1.154e-5,"MEAN_MOTION_DDOT":0}]
